NORAD_CAT_ID,OBJECT_NAME,OBJECT_TYPE,EPOCH,MEAN_MOTION,ECCENTRICITY,INCLINATION,RA_OF_ASC_NODE,ARG_OF_PERICENTER,MEAN_ANOMALY,BSTAR,MEAN_MOTION_DOT,MEAN_MOTION_DDOT,TLE_LINE0,TLE_LINE1,TLE_LINE2,SEMIMAJOR_AXIS,PERIOD,APOGEE,PERIGEE,DECAYED
53035.0,STARLINK-4157,PAYLOAD,2023-03-08 22:43:41,15.08859729,0.000115,53.2141,317.5958,100.7274,259.3848,0.0031737,0.00050612,0.0,0 STARLINK-4157,1 53035U 22076BB  23067.94700311  .00050612  00000-0  31737-2 0  9993,2 53035  53.2141 317.5958 0001150 100.7274 259.3848 15.08859729 37553,6917.82,95.436,540.481,538.89,0.0
53035.0,STARLINK-4157,PAYLOAD,2023-03-09 00:19:04,15.08872426,0.0001333,53.2145,317.2992,89.0606,271.0539,0.0031818,0.0005076,0.0,0 STARLINK-4157,1 53035U 22076BB  23068.01324140  .00050760  00000-0  31818-2 0  9998,2 53035  53.2145 317.2992 0001333  89.0606 271.0539 15.08872426 38023,6917.781,95.436,540.568,538.724,0.0
53035.0,STARLINK-4157,PAYLOAD,2023-03-09 16:12:55,15.08856481,0.0001975,53.2144,314.3288,69.0536,291.0667,0.00191,0.00030255,0.0,0 STARLINK-4157,1 53035U 22076BB  23068.67564486  .00030255  00000-0  19100-2 0  9996,2 53035  53.2144 314.3288 0001975  69.0536 291.0667 15.08856481 38128,6917.83,95.437,541.061,538.329,0.0
53035.0,STARLINK-4157,PAYLOAD,2023-03-09 22:34:27,15.08866518,0.0001543,53.2156,313.1359,80.3561,279.7605,0.0018481,0.00029268,0.0,0 STARLINK-4157,1 53035U 22076BB  23068.94060081  .00029268  00000-0  18481-2 0  9991,2 53035  53.2156 313.1359 0001543  80.3561 279.7605 15.08866518 37702,6917.799,95.436,540.732,538.597,0.0
53035.0,STARLINK-4157,PAYLOAD,2023-03-10 09:42:09,15.08857796,0.0001603,53.2158,311.0545,76.9501,283.167,0.0012838,0.00020213,0.0,0 STARLINK-4157,1 53035U 22076BB  23069.40428064  .00020213  00000-0  12838-2 0  9993,2 53035  53.2158 311.0545 0001603  76.9501 283.1670 15.08857796 38238,6917.826,95.436,540.8,538.582,0.0
53035.0,STARLINK-4157,PAYLOAD,2023-03-10 19:14:29,15.08812829,9.84e-05,53.2158,309.2722,75.0381,285.072,0.00049702,7.625e-05,0.0,0 STARLINK-4157,1 53035U 22076BB  23069.80172846  .00007625  00000-0  49702-3 0  9994,2 53035  53.2158 309.2722 0000984  75.0381 285.0720 15.08812829 38292,6917.963,95.439,540.509,539.148,0.0
53035.0,STARLINK-4157,PAYLOAD,2023-03-10 22:25:15,15.08821323,0.0001306,53.2161,308.6752,98.009,262.105,0.0013123,0.00020648,0.0,0 STARLINK-4157,1 53035U 22076BB  23069.93420942  .00020648  00000-0  13123-2 0  9998,2 53035  53.2161 308.6752 0001306  98.0090 262.1050 15.08821323 37855,6917.937,95.439,540.706,538.899,0.0
53035.0,STARLINK-4157,PAYLOAD,2023-03-12 01:26:49,15.0885875,0.0001286,53.215,303.618,98.6497,261.4641,0.0011345,0.00017823,0.0,0 STARLINK-4157,1 53035U 22076BB  23071.06028961  .00017823  00000-0  11345-2 0  9995,2 53035  53.2150 303.6180 0001286  98.6497 261.4641 15.08858750 38489,6917.823,95.436,540.578,538.798,0.0
53035.0,STARLINK-4157,PAYLOAD,2023-03-12 23:42:12,15.0886019,0.0001084,53.2152,299.4523,79.6794,280.432,0.00062581,9.691e-05,0.0,0 STARLINK-4157,1 53035U 22076BB  23071.98764305  .00009691  00000-0  62581-3 0  9998,2 53035  53.2152 299.4523 0001084  79.6794 280.4320 15.08860190 38621,6917.819,95.436,540.434,538.934,0.0
53035.0,STARLINK-4157,PAYLOAD,2023-03-14 13:51:28,15.08843071,8.48e-05,53.2131,292.3178,65.7635,294.3445,0.00078726,0.00012265,0.0,0 STARLINK-4157,1 53035U 22076BB  23073.57741757  .00012265  00000-0  78726-3 0  9990,2 53035  53.2131 292.3178 0000848  65.7635 294.3445 15.08843071 38860,6917.871,95.437,540.323,539.149,0.0
53035.0,STARLINK-4157,PAYLOAD,2023-03-14 20:13:00,15.08865438,8.35e-05,53.2142,291.1291,117.6883,242.4194,0.0013165,0.00020741,0.0,0 STARLINK-4157,1 53035U 22076BB  23073.84237162  .00020741  00000-0  13165-2 0  9993,2 53035  53.2142 291.1291 0000835 117.6883 242.4194 15.08865438 38904,6917.803,95.436,540.245,539.09,0.0
53035.0,STARLINK-4157,PAYLOAD,2023-03-15 12:06:52,15.08855791,9.16e-05,53.2137,288.1555,98.7858,261.3238,0.00050509,7.763e-05,0.0,0 STARLINK-4157,1 53035U 22076BB  23074.50476867  .00007763  00000-0  50509-3 0  9997,2 53035  53.2137 288.1555 0000916  98.7858 261.3238 15.08855791 39000,6917.832,95.437,540.331,539.063,0.0
53035.0,STARLINK-4157,PAYLOAD,2023-03-15 21:39:10,15.08864635,9.59e-05,53.2135,286.3708,99.1233,260.9868,0.001685,0.00026649,0.0,0 STARLINK-4157,1 53035U 22076BB  23074.90220448  .00026649  00000-0  16850-2 0  9997,2 53035  53.2135 286.3708 0000959  99.1233 260.9868 15.08864635 38603,6917.805,95.436,540.334,539.007,0.0
53035.0,STARLINK-4157,PAYLOAD,2023-03-16 02:25:19,15.08878808,9.57e-05,53.2135,285.4783,98.1856,261.9244,0.002142,0.00034003,0.0,0 STARLINK-4157,1 53035U 22076BB  23075.10092053  .00034003  00000-0  21420-2 0  9991,2 53035  53.2135 285.4783 0000957  98.1856 261.9244 15.08878808 39094,6917.762,95.435,540.289,538.965,0.0
53035.0,STARLINK-4157,PAYLOAD,2023-03-16 13:33:02,15.08818864,9.33e-05,53.2134,283.3972,21.5747,338.5284,2.2271e-05,6.7e-07,0.0,0 STARLINK-4157,1 53035U 22076BB  23075.56461366  .00000067  00000-0  22271-4 0  9998,2 53035  53.2134 283.3972 0000933  21.5747 338.5284 15.08818864 38701,6917.945,95.439,540.455,539.165,0.0
53035.0,STARLINK-4157,PAYLOAD,2023-03-16 19:54:35,15.08822634,9.04e-05,53.2136,282.2075,73.9259,286.1833,0.0011928,0.00018737,0.0,0 STARLINK-4157,1 53035U 22076BB  23075.82957791  .00018737  00000-0  11928-2 0  9997,2 53035  53.2136 282.2075 0000904  73.9259 286.1833 15.08822634 38744,6917.933,95.439,540.424,539.173,0.0
53035.0,STARLINK-4157,PAYLOAD,2023-03-16 23:05:21,15.08826223,9.73e-05,53.2137,281.6132,66.4288,293.6806,0.0013067,0.00020561,0.0,0 STARLINK-4157,1 53035U 22076BB  23075.96205972  .00020561  00000-0  13067-2 0  9993,2 53035  53.2137 281.6132 0000973  66.4288 293.6806 15.08826223 39222,6917.923,95.438,540.461,539.114,0.0
53035.0,STARLINK-4157,PAYLOAD,2023-03-17 13:23:50,15.08849243,9.9e-05,53.2136,278.9362,71.0297,289.0803,0.0013426,0.00021149,0.0,0 STARLINK-4157,1 53035U 22076BB  23076.55822030  .00021149  00000-0  13426-2 0  9991,2 53035  53.2136 278.9362 0000990  71.0297 289.0803 15.08849243 38857,6917.852,95.437,540.402,539.032,0.0
53035.0,STARLINK-4157,PAYLOAD,2023-03-17 19:45:22,15.08860261,0.0001014,53.2135,277.747,67.064,293.0459,0.0013523,0.00021311,0.0,0 STARLINK-4157,1 53035U 22076BB  23076.82317735  .00021311  00000-0  13523-2 0  9991,2 53035  53.2135 277.7470 0001014  67.0640 293.0459 15.08860261 38897,6917.818,95.436,540.385,538.982,0.0
53035.0,STARLINK-4157,PAYLOAD,2023-03-18 13:14:36,15.08852858,0.0001251,53.2139,274.475,90.8169,269.2966,0.0006176,9.558e-05,0.0,0 STARLINK-4157,1 53035U 22076BB  23077.55181407  .00009558  00000-0  61760-3 0  9993,2 53035  53.2139 274.4750 0001251  90.8169 269.2966 15.08852858 39464,6917.841,95.437,540.572,538.841,0.0
53035.0,STARLINK-4157,PAYLOAD,2023-03-18 19:36:09,15.08854777,0.0001118,53.2138,273.2853,86.7514,273.3606,0.00034519,5.212e-05,0.0,0 STARLINK-4157,1 53035U 22076BB  23077.81677176  .00005212  00000-0  34519-3 0  9990,2 53035  53.2138 273.2853 0001118  86.7514 273.3606 15.08854777 39047,6917.835,95.437,540.474,538.927,0.0
53035.0,STARLINK-4157,PAYLOAD,2023-03-19 13:05:23,15.08850158,9.84e-05,53.2128,270.0129,89.4488,270.6617,0.00030577,4.583e-05,0.0,0 STARLINK-4157,1 53035U 22076BB  23078.54541050  .00004583  00000-0  30577-3 0  9992,2 53035  53.2128 270.0129 0000984  89.4488 270.6617 15.08850158 39611,6917.849,95.437,540.395,539.034,0.0
53035.0,STARLINK-4157,PAYLOAD,2023-03-19 21:02:19,15.08849494,0.0001124,53.2133,268.5275,83.3087,276.8033,0.00019882,2.879e-05,0.0,0 STARLINK-4157,1 53035U 22076BB  23078.87660931  .00002879  00000-0  19882-3 0  9990,2 53035  53.2133 268.5275 0001124  83.3087 276.8033 15.08849494 39202,6917.851,95.437,540.494,538.939,0.0
53035.0,STARLINK-4157,PAYLOAD,2023-03-20 04:59:15,15.08837927,0.000217,53.2138,267.0399,78.5125,281.611,-5.8773e-05,-1.224e-05,0.0,0 STARLINK-4157,1 53035U 22076BB  23079.20781630 -.00001224  00000-0 -58773-4 0  9996,2 53035  53.2138 267.0399 0002170  78.5125 281.6110 15.08837927 39713,6917.887,95.438,541.253,538.251,0.0
53035.0,STARLINK-4157,PAYLOAD,2023-03-20 19:17:42,15.08846697,0.0001112,53.213,264.3639,82.3826,277.7293,0.00015421,2.168e-05,0.0,0 STARLINK-4157,1 53035U 22076BB  23079.80396837  .00002168  00000-0  15421-3 0  9991,2 53035  53.2130 264.3639 0001112  82.3826 277.7293 15.08846697 39349,6917.86,95.437,540.494,538.956,0.0
53035.0,STARLINK-4157,PAYLOAD,2023-03-20 22:28:28,15.08851629,0.0001041,53.2132,263.769,80.376,279.735,0.00024015,3.537e-05,0.0,0 STARLINK-4157,1 53035U 22076BB  23079.93644619  .00003537  00000-0  24015-3 0  9999,2 53035  53.2132 263.7690 0001041  80.3760 279.7350 15.08851629 39827,6917.845,95.437,540.43,538.99,0.0
53035.0,STARLINK-4157,PAYLOAD,2023-03-21 11:11:34,15.08846517,0.0001682,53.2132,261.3898,80.2066,279.9116,0.00021725,3.172e-05,0.0,0 STARLINK-4157,1 53035U 22076BB  23080.46637004  .00003172  00000-0  21725-3 0  9999,2 53035  53.2132 261.3898 0001682  80.2066 279.9116 15.08846517 39440,6917.86,95.437,540.889,538.562,0.0
53035.0,STARLINK-4157,PAYLOAD,2023-03-21 19:08:29,15.08843132,0.0001564,53.2133,259.9025,79.6875,280.4294,0.00026869,3.991e-05,0.0,0 STARLINK-4157,1 53035U 22076BB  23080.79756880  .00003991  00000-0  26869-3 0  9992,2 53035  53.2133 259.9025 0001564  79.6875 280.4294 15.08843132 39955,6917.871,95.437,540.818,538.654,0.0
53035.0,STARLINK-4157,PAYLOAD,2023-03-22 04:40:49,15.08835175,0.0001121,53.2137,258.1182,90.2762,269.8358,-2.3889e-05,-6.68e-06,0.0,0 STARLINK-4157,1 53035U 22076BB  23081.19501208 -.00000668  00000-0 -23889-4 0  9999,2 53035  53.2137 258.1182 0001121  90.2762 269.8358 15.08835175 40016,6917.895,95.438,540.536,538.985,0.0
53035.0,STARLINK-4157,PAYLOAD,2023-03-22 18:59:17,15.08844821,0.0001213,53.2128,255.4416,87.2704,272.8427,0.00052046,8.006e-05,0.0,0 STARLINK-4157,1 53035U 22076BB  23081.79117226  .00008006  00000-0  52046-3 0  9996,2 53035  53.2128 255.4416 0001213  87.2704 272.8427 15.08844821 39646,6917.866,95.437,540.57,538.892,0.0
